{"type":"FeatureCollection","features":[{"type":"Feature","geometry":{"type":"Point","coordinates":[6.84006,49.23564]},"properties":{"d":"31413","mva":50,"n":2}},{"type":"Feature","geometry":{"type":"Point","coordinates":[7.1171,49.32174]},"properties":{"d":"31706","mva":50,"n":2}},{"type":"Feature","geometry":{"type":"Point","coordinates":[7.13172,49.55492]},"properties":{"d":"31742","mva":166,"n":3}},{"type":"Feature","geometry":{"type":"Point","coordinates":[6.89047,49.52747]},"properties":{"d":"32070","mva":126,"n":2}},{"type":"Feature","geometry":{"type":"Point","coordinates":[7.11467,49.34913]},"properties":{"d":"32485","mva":80,"n":2}},{"type":"Feature","geometry":{"type":"Point","coordinates":[7.04358,49.21435]},"properties":{"d":"32510","mva":151,"n":3}},{"type":"Feature","geometry":{"type":"Point","coordinates":[6.99645,49.37541]},"properties":{"d":"32536","mva":80,"n":2}},{"type":"Feature","geometry":{"type":"Point","coordinates":[7.21335,49.16817]},"properties":{"d":"32540","mva":50,"n":2}},{"type":"Feature","geometry":{"type":"Point","coordinates":[6.87288,49.44553]},"properties":{"d":"32727","mva":126,"n":2}},{"type":"Feature","geometry":{"type":"Point","coordinates":[6.77321,49.29107]},"properties":{"d":"32816","mva":126,"n":2}},{"type":"Feature","geometry":{"type":"Point","coordinates":[7.03699,49.23136]},"properties":{"d":"33003","mva":252,"n":4}},{"type":"Feature","geometry":{"type":"Point","coordinates":[6.9009,49.28365]},"properties":{"d":"33005","mva":80,"n":2}},{"type":"Feature","geometry":{"type":"Point","coordinates":[6.76597,49.36009]},"properties":{"d":"33006","mva":151,"n":3}},{"type":"Feature","geometry":{"type":"Point","coordinates":[6.88435,49.24863]},"properties":{"d":"33015","mva":126,"n":2}},{"type":"Feature","geometry":{"type":"Point","coordinates":[7.24037,49.35765]},"properties":{"d":"33019","mva":80,"n":2}},{"type":"Feature","geometry":{"type":"Point","coordinates":[7.14826,49.28513]},"properties":{"d":"33025","mva":126,"n":2}},{"type":"Feature","geometry":{"type":"Point","coordinates":[6.63003,49.45457]},"properties":{"d":"33035","mva":189,"n":3}},{"type":"Feature","geometry":{"type":"Point","coordinates":[6.68831,49.36574]},"properties":{"d":"33036","mva":50,"n":2}},{"type":"Feature","geometry":{"type":"Point","coordinates":[6.90602,49.25083]},"properties":{"d":"33076","mva":80,"n":2}},{"type":"Feature","geometry":{"type":"Point","coordinates":[6.72646,49.27245]},"properties":{"d":"33185","mva":80,"n":2}},{"type":"Feature","geometry":{"type":"Point","coordinates":[7.04939,49.34471]},"properties":{"d":"33286","mva":80,"n":2}},{"type":"Feature","geometry":{"type":"Point","coordinates":[7.03126,49.3309]},"properties":{"d":"33318","mva":50,"n":2}},{"type":"Feature","geometry":{"type":"Point","coordinates":[7.16615,49.46111]},"properties":{"d":"33338","mva":189,"n":3}},{"type":"Feature","geometry":{"type":"Point","coordinates":[7.19398,49.33338]},"properties":{"d":"33364","mva":214,"n":4}},{"type":"Feature","geometry":{"type":"Point","coordinates":[6.91313,49.29491]},"properties":{"d":"33369","mva":50,"n":2}},{"type":"Feature","geometry":{"type":"Point","coordinates":[6.75741,49.31008]},"properties":{"d":"33378","mva":315,"n":5}},{"type":"Feature","geometry":{"type":"Point","coordinates":[7.14457,49.33464]},"properties":{"d":"33386","mva":50,"n":2}},{"type":"Feature","geometry":{"type":"Point","coordinates":[7.02552,49.29913]},"properties":{"d":"33410","mva":50,"n":2}},{"type":"Feature","geometry":{"type":"Point","coordinates":[7.10302,49.27719]},"properties":{"d":"33476","mva":151,"n":3}},{"type":"Feature","geometry":{"type":"Point","coordinates":[7.33353,49.25128]},"properties":{"d":"33561","mva":166,"n":3}},{"type":"Feature","geometry":{"type":"Point","coordinates":[6.78212,49.27556]},"properties":{"d":"33622","mva":151,"n":3}},{"type":"Feature","geometry":{"type":"Point","coordinates":[6.79675,49.25775]},"properties":{"d":"33630","mva":80,"n":2}},{"type":"Feature","geometry":{"type":"Point","coordinates":[7.07324,49.47767]},"properties":{"d":"33737","mva":80,"n":2}},{"type":"Feature","geometry":{"type":"Point","coordinates":[6.90136,49.40932]},"properties":{"d":"33741","mva":151,"n":3}},{"type":"Feature","geometry":{"type":"Point","coordinates":[7.31929,49.30482]},"properties":{"d":"34076","mva":126,"n":2}},{"type":"Feature","geometry":{"type":"Point","coordinates":[7.23633,49.34251]},"properties":{"d":"34078","mva":126,"n":2}},{"type":"Feature","geometry":{"type":"Point","coordinates":[7.23792,49.54692]},"properties":{"d":"34400","mva":166,"n":3}},{"type":"Feature","geometry":{"type":"Point","coordinates":[7.02998,49.33466]},"properties":{"d":"34407","mva":50,"n":2}},{"type":"Feature","geometry":{"type":"Point","coordinates":[6.75548,49.28204]},"properties":{"d":"34691","mva":80,"n":2}},{"type":"Feature","geometry":{"type":"Point","coordinates":[6.74005,49.35661]},"properties":{"d":"34793","mva":151,"n":3}},{"type":"Feature","geometry":{"type":"Point","coordinates":[7.35481,49.34033]},"properties":{"d":"34859","mva":151,"n":3}},{"type":"Feature","geometry":{"type":"Point","coordinates":[6.84039,49.27454]},"properties":{"d":"35446","mva":50,"n":2}},{"type":"Feature","geometry":{"type":"Point","coordinates":[6.94716,49.3228]},"properties":{"d":"35498","mva":151,"n":3}},{"type":"Feature","geometry":{"type":"Point","coordinates":[6.83961,49.25272]},"properties":{"d":"35781","mva":269,"n":5}},{"type":"Feature","geometry":{"type":"Point","coordinates":[6.96197,49.24084]},"properties":{"d":"35870","mva":480,"n":12}},{"type":"Feature","geometry":{"type":"Point","coordinates":[7.03725,49.17387]},"properties":{"d":"36104","mva":126,"n":2}}]}