{"type": "FeatureCollection", "features": [{"type": "Feature", "properties": {"name": "Umspannanlage Geislautern", "operator": "", "voltage": "110000"}, "geometry": {"type": "Point", "coordinates": [6.8398183, 49.2357069]}}, {"type": "Feature", "properties": {"name": "Umspannanlage Heinitz", "operator": "VSE", "voltage": "110000;35000"}, "geometry": {"type": "Point", "coordinates": [7.1169752, 49.321782]}}, {"type": "Feature", "properties": {"name": "Substation near Nohfelden", "operator": "", "voltage": "110000"}, "geometry": {"type": "Point", "coordinates": [7.1317221, 49.5549074]}}, {"type": "Feature", "properties": {"name": "Umspannwerk Wadern", "operator": "", "voltage": "110000"}, "geometry": {"type": "Point", "coordinates": [6.8904049, 49.5275096]}}, {"type": "Feature", "properties": {"name": "UA Brebach", "operator": "", "voltage": "110000"}, "geometry": {"type": "Point", "coordinates": [7.0436916, 49.2143066]}}, {"type": "Feature", "properties": {"name": "Umspannwerk Uchtelfangen", "operator": "Amprion", "voltage": "380000;220000;110000"}, "geometry": {"type": "Point", "coordinates": [6.9962061, 49.3757454]}}, {"type": "Feature", "properties": {"name": "Substation near Gersheim", "operator": "Pfalzwerke AG", "voltage": "110000"}, "geometry": {"type": "Point", "coordinates": [7.2133482, 49.1681591]}}, {"type": "Feature", "properties": {"name": "Substation near Saarbr\u00fccken", "operator": "SWS", "voltage": "110000;35000"}, "geometry": {"type": "Point", "coordinates": [6.9619823, 49.2408323]}}, {"type": "Feature", "properties": {"name": "Umspannanlage Schmelz", "operator": "VSE", "voltage": "110000"}, "geometry": {"type": "Point", "coordinates": [6.8729334, 49.4455059]}}, {"type": "Feature", "properties": {"name": "Umspannanlage Ensdorf", "operator": "Amprion", "voltage": "380000;220000;110000"}, "geometry": {"type": "Point", "coordinates": [6.7728936, 49.2912013]}}, {"type": "Feature", "properties": {"name": "Unterwerk Saarbr\u00fccken", "operator": "DB Energie GmbH", "voltage": "110000;15000"}, "geometry": {"type": "Point", "coordinates": [6.9775707, 49.2439009]}}, {"type": "Feature", "properties": {"name": "Substation near Saarbr\u00fccken", "operator": "", "voltage": "110000"}, "geometry": {"type": "Point", "coordinates": [7.0370054, 49.2313221]}}, {"type": "Feature", "properties": {"name": "Station Saarwellingen", "operator": "Amprion", "voltage": "220000;110000"}, "geometry": {"type": "Point", "coordinates": [6.7660925, 49.3601714]}}, {"type": "Feature", "properties": {"name": "UA Hilschbach", "operator": "VSE", "voltage": "110000"}, "geometry": {"type": "Point", "coordinates": [6.9471724, 49.3227864]}}, {"type": "Feature", "properties": {"name": "Substation near P\u00fcttlingen", "operator": "", "voltage": "110000"}, "geometry": {"type": "Point", "coordinates": [6.8841428, 49.2487451]}}, {"type": "Feature", "properties": {"name": "Schaltanlage St. Barbara", "operator": "Amprion / STEAG", "voltage": "380000;220000;110000;65000"}, "geometry": {"type": "Point", "coordinates": [7.2403989, 49.3576545]}}, {"type": "Feature", "properties": {"name": "UA Rohrbach", "operator": "", "voltage": "110000"}, "geometry": {"type": "Point", "coordinates": [7.1482637, 49.2851284]}}, {"type": "Feature", "properties": {"name": "UA Merzig", "operator": "VSE", "voltage": "110000"}, "geometry": {"type": "Point", "coordinates": [6.6300937, 49.454562]}}, {"type": "Feature", "properties": {"name": "Substation near Weiskirchen", "operator": "Energis", "voltage": "110000"}, "geometry": {"type": "Point", "coordinates": [6.8002582, 49.5021858]}}, {"type": "Feature", "properties": {"name": "\u00dcberherrn", "operator": "", "voltage": "110000;20000"}, "geometry": {"type": "Point", "coordinates": [6.7264525, 49.2724494]}}, {"type": "Feature", "properties": {"name": "Substation near Saarbr\u00fccken", "operator": "DB Energie GmbH", "voltage": "110000;15000"}, "geometry": {"type": "Point", "coordinates": [6.9764698, 49.2437104]}}, {"type": "Feature", "properties": {"name": "Substation near Merchweiler", "operator": "", "voltage": "110000"}, "geometry": {"type": "Point", "coordinates": [7.0493505, 49.3447279]}}, {"type": "Feature", "properties": {"name": "Substation near Quierschied", "operator": "Creos", "voltage": "110000;65000"}, "geometry": {"type": "Point", "coordinates": [7.0312496, 49.3309012]}}, {"type": "Feature", "properties": {"name": "Substation near Sankt Wendel", "operator": "", "voltage": "110000"}, "geometry": {"type": "Point", "coordinates": [7.1661489, 49.4611127]}}, {"type": "Feature", "properties": {"name": "Substation near Sankt Wendel", "operator": "Stadtwerke St. Wendel", "voltage": "110000"}, "geometry": {"type": "Point", "coordinates": [7.1461468, 49.4601079]}}, {"type": "Feature", "properties": {"name": "KEW Energieversorgung", "operator": "KEW Neunkirchen", "voltage": "110000"}, "geometry": {"type": "Point", "coordinates": [7.1939781, 49.3333796]}}, {"type": "Feature", "properties": {"name": "UA K\u00f6llerbach", "operator": "Energis", "voltage": "110000"}, "geometry": {"type": "Point", "coordinates": [6.9131255, 49.294913]}}, {"type": "Feature", "properties": {"name": "Substation near Saarlouis", "operator": "VSE", "voltage": "110000"}, "geometry": {"type": "Point", "coordinates": [6.7574141, 49.310088]}}, {"type": "Feature", "properties": {"name": "Substation near Dillingen/Saar", "operator": "Stadtwerke Dillingen", "voltage": "110000"}, "geometry": {"type": "Point", "coordinates": [6.709791, 49.3658183]}}, {"type": "Feature", "properties": {"name": "Saarstahl", "operator": "", "voltage": "110000"}, "geometry": {"type": "Point", "coordinates": [7.1703068, 49.355851]}}, {"type": "Feature", "properties": {"name": "Umspannanlage: St. Ingbert", "operator": "VSE", "voltage": "110000"}, "geometry": {"type": "Point", "coordinates": [7.1030078, 49.2771938]}}, {"type": "Feature", "properties": {"name": "Substation near Bous", "operator": "R\u00f6hrenwerke Bous", "voltage": "110000"}, "geometry": {"type": "Point", "coordinates": [6.7820832, 49.275592]}}, {"type": "Feature", "properties": {"name": "Schaffhausen", "operator": "", "voltage": "110000"}, "geometry": {"type": "Point", "coordinates": [6.7967441, 49.2577492]}}, {"type": "Feature", "properties": {"name": "UA Alsweiler", "operator": "", "voltage": "110000"}, "geometry": {"type": "Point", "coordinates": [7.0732563, 49.477706]}}, {"type": "Feature", "properties": {"name": "UA Lebach", "operator": "", "voltage": "110000"}, "geometry": {"type": "Point", "coordinates": [6.9013404, 49.4093237]}}, {"type": "Feature", "properties": {"name": "Substation near Kleinblittersdorf", "operator": "", "voltage": "110000"}, "geometry": {"type": "Point", "coordinates": [7.0372559, 49.1738787]}}, {"type": "Feature", "properties": {"name": "Substation near Bous", "operator": "", "voltage": "110000"}, "geometry": {"type": "Point", "coordinates": [6.8395821, 49.2527604]}}, {"type": "Feature", "properties": {"name": "Homburg", "operator": "Amprion", "voltage": "220000;110000"}, "geometry": {"type": "Point", "coordinates": [7.3194091, 49.3047681]}}, {"type": "Feature", "properties": {"name": "Substation near Bexbach", "operator": "", "voltage": "110000"}, "geometry": {"type": "Point", "coordinates": [7.236365, 49.3424674]}}, {"type": "Feature", "properties": {"name": "UA Freisen", "operator": "", "voltage": "110000"}, "geometry": {"type": "Point", "coordinates": [7.2379703, 49.5469645]}}, {"type": "Feature", "properties": {"name": "UA Borg", "operator": "", "voltage": "110000"}, "geometry": {"type": "Point", "coordinates": [6.4190546, 49.4915141]}}, {"type": "Feature", "properties": {"name": "UA Lisdorfer Berg", "operator": "VSE", "voltage": "110000;35000;20000"}, "geometry": {"type": "Point", "coordinates": [6.7555141, 49.2820127]}}, {"type": "Feature", "properties": {"name": "Substation near Dillingen/Saar", "operator": "", "voltage": "110000"}, "geometry": {"type": "Point", "coordinates": [6.7402106, 49.3565069]}}, {"type": "Feature", "properties": {"name": "Umspannwerk Bruchhof", "operator": "Stadtwerke Homburg", "voltage": "110000"}, "geometry": {"type": "Point", "coordinates": [7.3547944, 49.3403373]}}, {"type": "Feature", "properties": {"name": "Substation near Wadern", "operator": "", "voltage": "110000"}, "geometry": {"type": "Point", "coordinates": [6.8897783, 49.5278517]}}, {"type": "Feature", "properties": {"name": "Substation near Bous", "operator": "", "voltage": "110000;20000"}, "geometry": {"type": "Point", "coordinates": [6.839819, 49.2747311]}}, {"type": "Feature", "properties": {"name": "Substation near Bous", "operator": "Dunoair", "voltage": "110000;30000"}, "geometry": {"type": "Point", "coordinates": [6.8399649, 49.274876]}}, {"type": "Feature", "properties": {"name": "Substation near Nonnweiler", "operator": "", "voltage": "110000"}, "geometry": {"type": "Point", "coordinates": [6.975316, 49.580556]}}, {"type": "Feature", "properties": {"name": "Substation near Saarbr\u00fccken", "operator": "", "voltage": "110000"}, "geometry": {"type": "Point", "coordinates": [7.0158477, 49.2237146]}}, {"type": "Feature", "properties": {"name": "UA Rehlingen", "operator": "", "voltage": "110000"}, "geometry": {"type": "Point", "coordinates": [6.6880198, 49.36578]}}, {"type": "Feature", "properties": {"name": "Substation near Bous", "operator": "", "voltage": "110000"}, "geometry": {"type": "Point", "coordinates": [6.8347547, 49.263572]}}]}